STARLINK-36455          
1 67418U 26005Q   26037.53968286  .00127711  00000+0  21473-2 0  9991
2 67418  42.9994  56.4005 0001774 254.3271 105.7393 15.50579800  3908
STARLINK-36424          
1 67419U 26005R   26036.50868968  .00121663  00000+0  20442-2 0  9999
2 67419  42.9997  62.4237 0001334 252.7307 107.3407 15.50625233  3748
STARLINK-35564          
1 67420U 26005S   26037.53899899  .00083452  00000+0  14129-2 0  9990
2 67420  42.9997  56.3951 0001412 267.7089  92.3610 15.50584629  3905
STARLINK-36431          
1 67421U 26005T   26037.91671296  .00101184  00000+0  24073-2 0  9994
2 67421  43.0006  54.4482 0001535 259.0715 303.7847 15.40576491  5037
STARLINK-36418          
1 67422U 26005U   26037.91671296 -.02037945  00000+0 -43991-1 0  9991
2 67422  43.0001  54.1872 0001092 260.5631  49.7462 15.47171350  5194
STARLINK-36465          
1 67423U 26005V   26037.91671296 -.00006926  00000+0 -15863-3 0  9994
2 67423  43.0003  54.3878 0000799 293.6487 293.9074 15.40714356  4984
STARLINK-36362          
1 67424U 26005W   26037.91671296  .00104812  00000+0  24873-2 0  9996
2 67424  42.9999  54.3276 0000852 276.2265 336.2582 15.40635686  5243
STARLINK-36447          
1 67425U 26005X   26037.91671296  .00081575  00000+0  19439-2 0  9999
2 67425  43.0003  54.2656 0000819 280.5226 356.8710 15.40628667  5243
STARLINK-36146          
1 67426U 26005Y   26037.40811104  .00068707  00000+0  11673-2 0  9992
2 67426  43.0002  57.1307 0001420 263.9674  96.1024 15.50564728  3876
STARLINK-36459          
1 67427U 26005Z   26037.53659788  .00082271  00000+0  13931-2 0  9996
2 67427  42.9996  56.3750 0001467 262.2726  97.7967 15.50585661  3895
STARLINK-36464          
1 67428U 26005AA  26037.53591120  .00087880  00000+0  14866-2 0  9991
2 67428  42.9997  56.3697 0001555 257.3807 102.6879 15.50586678  3897
STARLINK-36513          
1 67429U 26005AB  26037.53557013  .00092032  00000+0  15558-2 0  9999
2 67429  42.9998  56.3660 0000938 261.5684  98.5070 15.50586663  3893
