CCSDS_OMM_VERS = 2.0
CREATION_DATE  = 
ORIGINATOR     = 

OBJECT_NAME    = STARLINK-36455
OBJECT_ID      = 2026-005Q
CENTER_NAME    = EARTH
REF_FRAME      = TEME
TIME_SYSTEM    = UTC
MEAN_ELEMENT_THEORY = SGP/SGP4

EPOCH          = 2026-02-06T12:57:08.599104
MEAN_MOTION    = 15.50579800
ECCENTRICITY   = .0001774
INCLINATION    = 42.9994
RA_OF_ASC_NODE = 56.4005
ARG_OF_PERICENTER = 254.3271
MEAN_ANOMALY   = 105.7393

EPHEMERIS_TYPE = 0
CLASSIFICATION_TYPE = U
NORAD_CAT_ID   = 67418
ELEMENT_SET_NO = 999
REV_AT_EPOCH   = 390
BSTAR          = .21473E-2
MEAN_MOTION_DOT = .127711E-2
MEAN_MOTION_DDOT = 0

CCSDS_OMM_VERS = 2.0
CREATION_DATE  = 
ORIGINATOR     = 

OBJECT_NAME    = STARLINK-36424
OBJECT_ID      = 2026-005R
CENTER_NAME    = EARTH
REF_FRAME      = TEME
TIME_SYSTEM    = UTC
MEAN_ELEMENT_THEORY = SGP/SGP4

EPOCH          = 2026-02-05T12:12:30.788352
MEAN_MOTION    = 15.50625233
ECCENTRICITY   = .0001334
INCLINATION    = 42.9997
RA_OF_ASC_NODE = 62.4237
ARG_OF_PERICENTER = 252.7307
MEAN_ANOMALY   = 107.3407

EPHEMERIS_TYPE = 0
CLASSIFICATION_TYPE = U
NORAD_CAT_ID   = 67419
ELEMENT_SET_NO = 999
REV_AT_EPOCH   = 374
BSTAR          = .20442E-2
MEAN_MOTION_DOT = .121663E-2
MEAN_MOTION_DDOT = 0

CCSDS_OMM_VERS = 2.0
CREATION_DATE  = 
ORIGINATOR     = 

OBJECT_NAME    = STARLINK-35564
OBJECT_ID      = 2026-005S
CENTER_NAME    = EARTH
REF_FRAME      = TEME
TIME_SYSTEM    = UTC
MEAN_ELEMENT_THEORY = SGP/SGP4

EPOCH          = 2026-02-06T12:56:09.512736
MEAN_MOTION    = 15.50584629
ECCENTRICITY   = .0001412
INCLINATION    = 42.9997
RA_OF_ASC_NODE = 56.3951
ARG_OF_PERICENTER = 267.7089
MEAN_ANOMALY   = 92.3610

EPHEMERIS_TYPE = 0
CLASSIFICATION_TYPE = U
NORAD_CAT_ID   = 67420
ELEMENT_SET_NO = 999
REV_AT_EPOCH   = 390
BSTAR          = .14129E-2
MEAN_MOTION_DOT = .83452E-3
MEAN_MOTION_DDOT = 0

CCSDS_OMM_VERS = 2.0
CREATION_DATE  = 
ORIGINATOR     = 

OBJECT_NAME    = STARLINK-36431
OBJECT_ID      = 2026-005T
CENTER_NAME    = EARTH
REF_FRAME      = TEME
TIME_SYSTEM    = UTC
MEAN_ELEMENT_THEORY = SGP/SGP4

EPOCH          = 2026-02-06T22:00:03.999744
MEAN_MOTION    = 15.40576491
ECCENTRICITY   = .00015359
INCLINATION    = 43.0006
RA_OF_ASC_NODE = 54.4482
ARG_OF_PERICENTER = 259.0715
MEAN_ANOMALY   = 303.7847

EPHEMERIS_TYPE = 0
CLASSIFICATION_TYPE = U
NORAD_CAT_ID   = 67421
ELEMENT_SET_NO = 999
REV_AT_EPOCH   = 503
BSTAR          = .24073391E-2
MEAN_MOTION_DOT = .101184E-2
MEAN_MOTION_DDOT = 0

CCSDS_OMM_VERS = 2.0
CREATION_DATE  = 
ORIGINATOR     = 

OBJECT_NAME    = STARLINK-36418
OBJECT_ID      = 2026-005U
CENTER_NAME    = EARTH
REF_FRAME      = TEME
TIME_SYSTEM    = UTC
MEAN_ELEMENT_THEORY = SGP/SGP4

EPOCH          = 2026-02-06T22:00:03.999744
MEAN_MOTION    = 15.47171350
ECCENTRICITY   = .00010928
INCLINATION    = 43.0001
RA_OF_ASC_NODE = 54.1872
ARG_OF_PERICENTER = 260.5631
MEAN_ANOMALY   = 49.7462

EPHEMERIS_TYPE = 0
CLASSIFICATION_TYPE = U
NORAD_CAT_ID   = 67422
ELEMENT_SET_NO = 999
REV_AT_EPOCH   = 519
BSTAR          = -.4399108E-1
MEAN_MOTION_DOT = -.2037945E-1
MEAN_MOTION_DDOT = 0

CCSDS_OMM_VERS = 2.0
CREATION_DATE  = 
ORIGINATOR     = 

OBJECT_NAME    = STARLINK-36465
OBJECT_ID      = 2026-005V
CENTER_NAME    = EARTH
REF_FRAME      = TEME
TIME_SYSTEM    = UTC
MEAN_ELEMENT_THEORY = SGP/SGP4

EPOCH          = 2026-02-06T22:00:03.999744
MEAN_MOTION    = 15.40714356
ECCENTRICITY   = .0000799
INCLINATION    = 43.0003
RA_OF_ASC_NODE = 54.3878
ARG_OF_PERICENTER = 293.6487
MEAN_ANOMALY   = 293.9074

EPHEMERIS_TYPE = 0
CLASSIFICATION_TYPE = U
NORAD_CAT_ID   = 67423
ELEMENT_SET_NO = 999
REV_AT_EPOCH   = 498
BSTAR          = -.15862804E-3
MEAN_MOTION_DOT = -.6926E-4
MEAN_MOTION_DDOT = 0

CCSDS_OMM_VERS = 2.0
CREATION_DATE  = 
ORIGINATOR     = 

OBJECT_NAME    = STARLINK-36362
OBJECT_ID      = 2026-005W
CENTER_NAME    = EARTH
REF_FRAME      = TEME
TIME_SYSTEM    = UTC
MEAN_ELEMENT_THEORY = SGP/SGP4

EPOCH          = 2026-02-06T22:00:03.999744
MEAN_MOTION    = 15.40635686
ECCENTRICITY   = .00008521
INCLINATION    = 42.9999
RA_OF_ASC_NODE = 54.3276
ARG_OF_PERICENTER = 276.2265
MEAN_ANOMALY   = 336.2582

EPHEMERIS_TYPE = 0
CLASSIFICATION_TYPE = U
NORAD_CAT_ID   = 67424
ELEMENT_SET_NO = 999
REV_AT_EPOCH   = 524
BSTAR          = .24873362E-2
MEAN_MOTION_DOT = .104812E-2
MEAN_MOTION_DDOT = 0

CCSDS_OMM_VERS = 2.0
CREATION_DATE  = 
ORIGINATOR     = 

OBJECT_NAME    = STARLINK-36447
OBJECT_ID      = 2026-005X
CENTER_NAME    = EARTH
REF_FRAME      = TEME
TIME_SYSTEM    = UTC
MEAN_ELEMENT_THEORY = SGP/SGP4

EPOCH          = 2026-02-06T22:00:03.999744
MEAN_MOTION    = 15.40628667
ECCENTRICITY   = .00008192
INCLINATION    = 43.0003
RA_OF_ASC_NODE = 54.2656
ARG_OF_PERICENTER = 280.5226
MEAN_ANOMALY   = 356.8710

EPHEMERIS_TYPE = 0
CLASSIFICATION_TYPE = U
NORAD_CAT_ID   = 67425
ELEMENT_SET_NO = 999
REV_AT_EPOCH   = 524
BSTAR          = .19438652E-2
MEAN_MOTION_DOT = .81575E-3
MEAN_MOTION_DDOT = 0

CCSDS_OMM_VERS = 2.0
CREATION_DATE  = 
ORIGINATOR     = 

OBJECT_NAME    = STARLINK-36146
OBJECT_ID      = 2026-005Y
CENTER_NAME    = EARTH
REF_FRAME      = TEME
TIME_SYSTEM    = UTC
MEAN_ELEMENT_THEORY = SGP/SGP4

EPOCH          = 2026-02-06T09:47:40.793856
MEAN_MOTION    = 15.50564728
ECCENTRICITY   = .00014203
INCLINATION    = 43.0002
RA_OF_ASC_NODE = 57.1307
ARG_OF_PERICENTER = 263.9674
MEAN_ANOMALY   = 96.1024

EPHEMERIS_TYPE = 0
CLASSIFICATION_TYPE = U
NORAD_CAT_ID   = 67426
ELEMENT_SET_NO = 999
REV_AT_EPOCH   = 387
BSTAR          = .11673151E-2
MEAN_MOTION_DOT = .68707E-3
MEAN_MOTION_DDOT = 0

CCSDS_OMM_VERS = 2.0
CREATION_DATE  = 
ORIGINATOR     = 

OBJECT_NAME    = STARLINK-36459
OBJECT_ID      = 2026-005Z
CENTER_NAME    = EARTH
REF_FRAME      = TEME
TIME_SYSTEM    = UTC
MEAN_ELEMENT_THEORY = SGP/SGP4

EPOCH          = 2026-02-06T12:52:42.056832
MEAN_MOTION    = 15.50585661
ECCENTRICITY   = .0001467
INCLINATION    = 42.9996
RA_OF_ASC_NODE = 56.3750
ARG_OF_PERICENTER = 262.2726
MEAN_ANOMALY   = 97.7967

EPHEMERIS_TYPE = 0
CLASSIFICATION_TYPE = U
NORAD_CAT_ID   = 67427
ELEMENT_SET_NO = 999
REV_AT_EPOCH   = 389
BSTAR          = .13931E-2
MEAN_MOTION_DOT = .82271E-3
MEAN_MOTION_DDOT = 0

CCSDS_OMM_VERS = 2.0
CREATION_DATE  = 
ORIGINATOR     = 

OBJECT_NAME    = STARLINK-36464
OBJECT_ID      = 2026-005AA
CENTER_NAME    = EARTH
REF_FRAME      = TEME
TIME_SYSTEM    = UTC
MEAN_ELEMENT_THEORY = SGP/SGP4

EPOCH          = 2026-02-06T12:51:42.727680
MEAN_MOTION    = 15.50586678
ECCENTRICITY   = .0001555
INCLINATION    = 42.9997
RA_OF_ASC_NODE = 56.3697
ARG_OF_PERICENTER = 257.3807
MEAN_ANOMALY   = 102.6879

EPHEMERIS_TYPE = 0
CLASSIFICATION_TYPE = U
NORAD_CAT_ID   = 67428
ELEMENT_SET_NO = 999
REV_AT_EPOCH   = 389
BSTAR          = .14866E-2
MEAN_MOTION_DOT = .8788E-3
MEAN_MOTION_DDOT = 0

CCSDS_OMM_VERS = 2.0
CREATION_DATE  = 
ORIGINATOR     = 

OBJECT_NAME    = STARLINK-36513
OBJECT_ID      = 2026-005AB
CENTER_NAME    = EARTH
REF_FRAME      = TEME
TIME_SYSTEM    = UTC
MEAN_ELEMENT_THEORY = SGP/SGP4

EPOCH          = 2026-02-06T12:51:13.259232
MEAN_MOTION    = 15.50586663
ECCENTRICITY   = .0000938
INCLINATION    = 42.9998
RA_OF_ASC_NODE = 56.3660
ARG_OF_PERICENTER = 261.5684
MEAN_ANOMALY   = 98.5070

EPHEMERIS_TYPE = 0
CLASSIFICATION_TYPE = U
NORAD_CAT_ID   = 67429
ELEMENT_SET_NO = 999
REV_AT_EPOCH   = 389
BSTAR          = .15558E-2
MEAN_MOTION_DOT = .92032E-3
MEAN_MOTION_DDOT = 0

